LEMUR-2-ANDIS           
1 42838U 17042P   26068.55941107  .00023598  00000+0  79875-3 0  9998
2 42838  97.3659 249.7950 0009101   4.3248 355.8070 15.30557934473198
STARLINK-31547          
1 59364U 24060S   26068.55542380 -.00000157  00000+0  38318-5 0  9994
2 59364  43.0032 249.2555 0001191 266.1269  93.9446 15.27570970110175
